CTC1_L_00638001-01
1 54729U 25208IZ  26037.47810185  .00000000  00000+0  00000-0 0  9995
2 54729  50.0000   0.0000 0000000   0.0000   0.0000  3.78963995    14
CTC1_L_00638001-02
1 54730U 25761TJ  26037.47810185  .00000000  00000+0  00000-0 0  9991
2 54730  50.0000   0.0000 0000000   0.0000  36.0000  3.78963995    15
CTC1_L_00638001-03
1 54731U 26371AZ  26037.47810185  .00000000  00000+0  00000-0 0  9990
2 54731  50.0000   0.0000 0000000   0.0000  72.0000  3.78963995    16
CTC1_L_00638001-04
1 54732U 24933XD  26037.47810185  .00000000  00000+0  00000-0 0  9993
2 54732  50.0000   0.0000 0000000   0.0000 108.0000  3.78963995    17
CTC1_L_00638001-05
1 54733U 25771WL  26037.47810185  .00000000  00000+0  00000-0 0  9995
2 54733  50.0000   0.0000 0000000   0.0000 144.0000  3.78963995    18
CTC1_L_00638001-06
1 54734U 23628IH  26037.47810185  .00000000  00000+0  00000-0 0  9995
2 54734  50.0000   0.0000 0000000   0.0000 180.0000  3.78963995    19
CTC1_L_00638001-07
1 54735U 23970AL  26037.47810185  .00000000  00000+0  00000-0 0  9996
2 54735  50.0000   0.0000 0000000   0.0000 216.0000  3.78963995    10
CTC1_L_00638001-08
1 54736U 25995ZW  26037.47810185  .00000000  00000+0  00000-0 0  9996
2 54736  50.0000   0.0000 0000000   0.0000 252.0000  3.78963995    11
CTC1_L_00638001-09
1 54737U 22761VR  26037.47810185  .00000000  00000+0  00000-0 0  9995
2 54737  50.0000   0.0000 0000000   0.0000 288.0000  3.78963995    11
CTC1_L_00638001-10
1 54738U 22848BH  26037.47810185  .00000000  00000+0  00000-0 0  9992
2 54738  50.0000   0.0000 0000000   0.0000 324.0000  3.78963995    13
CTC1_L_00638002-01
1 54739U 23198JR  26037.47810185  .00000000  00000+0  00000-0 0  9992
2 54739  50.0000  30.0000 0000000   0.0000  12.0000  3.78963995    11
CTC1_L_00638002-02
1 54740U 26858MC  26037.47810185  .00000000  00000+0  00000-0 0  9990
2 54740  50.0000  30.0000 0000000   0.0000  48.0000  3.78963995    12
CTC1_L_00638002-03
1 54741U 22961IH  26037.47810185  .00000000  00000+0  00000-0 0  9992
2 54741  50.0000  30.0000 0000000   0.0000  84.0000  3.78963995    13
CTC1_L_00638002-04
1 54742U 23195DY  26037.47810185  .00000000  00000+0  00000-0 0  9993
2 54742  50.0000  30.0000 0000000   0.0000 120.0000  3.78963995    15
CTC1_L_00638002-05
1 54743U 26791RT  26037.47810185  .00000000  00000+0  00000-0 0  9999
2 54743  50.0000  30.0000 0000000   0.0000 156.0000  3.78963995    15
CTC1_L_00638002-06
1 54744U 25674XC  26037.47810185  .00000000  00000+0  00000-0 0  9999
2 54744  50.0000  30.0000 0000000   0.0000 192.0000  3.78963995    16
CTC1_L_00638002-07
1 54745U 25396DS  26037.47810185  .00000000  00000+0  00000-0 0  9991
2 54745  50.0000  30.0000 0000000   0.0000 228.0000  3.78963995    17
CTC1_L_00638002-08
1 54746U 23923MM  26037.47810185  .00000000  00000+0  00000-0 0  9996
2 54746  50.0000  30.0000 0000000   0.0000 264.0000  3.78963995    18
CTC1_L_00638002-09
1 54747U 22218FG  26037.47810185  .00000000  00000+0  00000-0 0  9993
2 54747  50.0000  30.0000 0000000   0.0000 300.0000  3.78963995    10
CTC1_L_00638002-10
1 54748U 26061KF  26037.47810185  .00000000  00000+0  00000-0 0  9994
2 54748  50.0000  30.0000 0000000   0.0000 336.0000  3.78963995    10
CTC1_L_00638003-01
1 54749U 24150F   26037.47810185  .00000000  00000+0  00000-0 0  9992
2 54749  50.0000  60.0000 0000000   0.0000  24.0000  3.78963995    18
CTC1_L_00638003-02
1 54750U 22225VF  26037.47810185  .00000000  00000+0  00000-0 0  9995
2 54750  50.0000  60.0000 0000000   0.0000  60.0000  3.78963995    10
CTC1_L_00638003-03
1 54751U 24426EA  26037.47810185  .00000000  00000+0  00000-0 0  9991
2 54751  50.0000  60.0000 0000000   0.0000  96.0000  3.78963995    10
CTC1_L_00638003-04
1 54752U 24418ZQ  26037.47810185  .00000000  00000+0  00000-0 0  9993
2 54752  50.0000  60.0000 0000000   0.0000 132.0000  3.78963995    12
CTC1_L_00638003-05
1 54753U 23918SZ  26037.47810185  .00000000  00000+0  00000-0 0  9998
2 54753  50.0000  60.0000 0000000   0.0000 168.0000  3.78963995    12
CTC1_L_00638003-06
1 54754U 25556IG  26037.47810185  .00000000  00000+0  00000-0 0  9999
2 54754  50.0000  60.0000 0000000   0.0000 204.0000  3.78963995    14
CTC1_L_00638003-07
1 54755U 24291TF  26037.47810185  .00000000  00000+0  00000-0 0  9995
2 54755  50.0000  60.0000 0000000   0.0000 240.0000  3.78963995    15
CTC1_L_00638003-08
1 54756U 26718Q   26037.47810185  .00000000  00000+0  00000-0 0  9992
2 54756  50.0000  60.0000 0000000   0.0000 276.0000  3.78963995    15
CTC1_L_00638003-09
1 54757U 25722LY  26037.47810185  .00000000  00000+0  00000-0 0  9997
2 54757  50.0000  60.0000 0000000   0.0000 312.0000  3.78963995    17
CTC1_L_00638003-10
1 54758U 26137YC  26037.47810185  .00000000  00000+0  00000-0 0  9999
2 54758  50.0000  60.0000 0000000   0.0000 348.0000  3.78963995    17
CTC1_L_00638004-01
1 54759U 24524UF  26037.47810185  .00000000  00000+0  00000-0 0  9998
2 54759  50.0000  90.0000 0000000   0.0000  36.0000  3.78963995    15
CTC1_L_00638004-02
1 54760U 22323FJ  26037.47810185  .00000000  00000+0  00000-0 0  9995
2 54760  50.0000  90.0000 0000000   0.0000  72.0000  3.78963995    17
CTC1_L_00638004-03
1 54761U 24137PQ  26037.47810185  .00000000  00000+0  00000-0 0  9991
2 54761  50.0000  90.0000 0000000   0.0000 108.0000  3.78963995    18
CTC1_L_00638004-04
1 54762U 23940ZO  26037.47810185  .00000000  00000+0  00000-0 0  9993
2 54762  50.0000  90.0000 0000000   0.0000 144.0000  3.78963995    19
CTC1_L_00638004-05
1 54763U 26941ST  26037.47810185  .00000000  00000+0  00000-0 0  9998
2 54763  50.0000  90.0000 0000000   0.0000 180.0000  3.78963995    10
CTC1_L_00638004-06
1 54764U 25089GO  26037.47810185  .00000000  00000+0  00000-0 0  9991
2 54764  50.0000  90.0000 0000000   0.0000 216.0000  3.78963995    11
CTC1_L_00638004-07
1 54765U 22156BG  26037.47810185  .00000000  00000+0  00000-0 0  9994
2 54765  50.0000  90.0000 0000000   0.0000 252.0000  3.78963995    12
CTC1_L_00638004-08
1 54766U 26919P   26037.47810185  .00000000  00000+0  00000-0 0  9996
2 54766  50.0000  90.0000 0000000   0.0000 288.0000  3.78963995    12
CTC1_L_00638004-09
1 54767U 26334EC  26037.47810185  .00000000  00000+0  00000-0 0  9998
2 54767  50.0000  90.0000 0000000   0.0000 324.0000  3.78963995    14
CTC1_L_00638004-10
1 54768U 22832XJ  26037.47810185  .00000000  00000+0  00000-0 0  9998
2 54768  50.0000  90.0000 0000000   0.0000   0.0000  3.78963995    16
CTC1_L_00638005-01
1 54769U 22086VM  26037.47810185  .00000000  00000+0  00000-0 0  9990
2 54769  50.0000 120.0000 0000000   0.0000  48.0000  3.78963995    13
CTC1_L_00638005-02
1 54770U 24712UZ  26037.47810185  .00000000  00000+0  00000-0 0  9990
2 54770  50.0000 120.0000 0000000   0.0000  84.0000  3.78963995    15
CTC1_L_00638005-03
1 54771U 25415GE  26037.47810185  .00000000  00000+0  00000-0 0  9992
2 54771  50.0000 120.0000 0000000   0.0000 120.0000  3.78963995    17
CTC1_L_00638005-04
1 54772U 25905JG  26037.47810185  .00000000  00000+0  00000-0 0  9997
2 54772  50.0000 120.0000 0000000   0.0000 156.0000  3.78963995    17
CTC1_L_00638005-05
1 54773U 24038TY  26037.47810185  .00000000  00000+0  00000-0 0  9994
2 54773  50.0000 120.0000 0000000   0.0000 192.0000  3.78963995    18
CTC1_L_00638005-06
1 54774U 24968WX  26037.47810185  .00000000  00000+0  00000-0 0  9997
2 54774  50.0000 120.0000 0000000   0.0000 228.0000  3.78963995    19
CTC1_L_00638005-07
1 54775U 26182FY  26037.47810185  .00000000  00000+0  00000-0 0  9998
2 54775  50.0000 120.0000 0000000   0.0000 264.0000  3.78963995    10
CTC1_L_00638005-08
1 54776U 26951AF  26037.47810185  .00000000  00000+0  00000-0 0  9993
2 54776  50.0000 120.0000 0000000   0.0000 300.0000  3.78963995    12
CTC1_L_00638005-09
1 54777U 26205FC  26037.47810185  .00000000  00000+0  00000-0 0  9996
2 54777  50.0000 120.0000 0000000   0.0000 336.0000  3.78963995    12
CTC1_L_00638005-10
1 54778U 23543UE  26037.47810185  .00000000  00000+0  00000-0 0  9999
2 54778  50.0000 120.0000 0000000   0.0000  12.0000  3.78963995    14
CTC1_L_00638006-01
1 54779U 25483SC  26037.47810185  .00000000  00000+0  00000-0 0  9995
2 54779  50.0000 150.0000 0000000   0.0000  60.0000  3.78963995    11
CTC1_L_00638006-02
1 54780U 24515MS  26037.47810185  .00000000  00000+0  00000-0 0  9992
2 54780  50.0000 150.0000 0000000   0.0000  96.0000  3.78963995    12
CTC1_L_00638006-03
1 54781U 25241QM  26037.47810185  .00000000  00000+0  00000-0 0  9990
2 54781  50.0000 150.0000 0000000   0.0000 132.0000  3.78963995    14
CTC1_L_00638006-04
1 54782U 26821SH  26037.47810185  .00000000  00000+0  00000-0 0  9996
2 54782  50.0000 150.0000 0000000   0.0000 168.0000  3.78963995    14
CTC1_L_00638006-05
1 54783U 26192JF  26037.47810185  .00000000  00000+0  00000-0 0  9998
2 54783  50.0000 150.0000 0000000   0.0000 204.0000  3.78963995    16
CTC1_L_00638006-06
1 54784U 24523CD  26037.47810185  .00000000  00000+0  00000-0 0  9995
2 54784  50.0000 150.0000 0000000   0.0000 240.0000  3.78963995    17
CTC1_L_00638006-07
1 54785U 26635VL  26037.47810185  .00000000  00000+0  00000-0 0  9992
2 54785  50.0000 150.0000 0000000   0.0000 276.0000  3.78963995    17
CTC1_L_00638006-08
1 54786U 24399CI  26037.47810185  .00000000  00000+0  00000-0 0  9998
2 54786  50.0000 150.0000 0000000   0.0000 312.0000  3.78963995    19
CTC1_L_00638006-09
1 54787U 24806AF  26037.47810185  .00000000  00000+0  00000-0 0  9992
2 54787  50.0000 150.0000 0000000   0.0000 348.0000  3.78963995    19
CTC1_L_00638006-10
1 54788U 26528UM  26037.47810185  .00000000  00000+0  00000-0 0  9996
2 54788  50.0000 150.0000 0000000   0.0000  24.0000  3.78963995    11
CTC1_L_00638007-01
1 54789U 22888UM  26037.47810185  .00000000  00000+0  00000-0 0  9992
2 54789  50.0000 180.0000 0000000   0.0000  72.0000  3.78963995    18
CTC1_L_00638007-02
1 54790U 23907UJ  26037.47810185  .00000000  00000+0  00000-0 0  9997
2 54790  50.0000 180.0000 0000000   0.0000 108.0000  3.78963995    10
